QIANFAN-210             
1 69809U 26153K   26200.60059515 -.01917183  00000+0 -98214+0 0  9994
2 69809  88.9925 358.5414 0006953 190.0162 170.0890 14.19393556  2178
QIANFAN-211             
1 69810U 26153L   26200.59982509 -.01893711  00000+0 -97145+0 0  9994
2 69810  88.9923 358.5408 0005963 190.8396 169.2667 14.19275357  2178
QIANFAN-212             
1 69811U 26153M   26199.18924639 -.02018720  00000+0 -97540+0 0  9996
2 69811  88.9888 358.7049 0012200 152.0967 208.0882 14.22682297  1975
QIANFAN-213             
1 69812U 26153N   26198.90858230 -.02004805  00000+0 -98228+0 0  9992
2 69812  88.9917 358.7338 0007827 155.5754 204.5809 14.21939575  1930
QIANFAN-214             
1 69813U 26153P   26199.96087807  .00000060  00000+0  18792-4 0  9992
2 69813  88.9926 358.6122 0008141 171.0888 189.0452 14.26672643  2085
QIANFAN-215             
1 69814U 26153Q   26199.96081115  .00000127  00000+0  46376-4 0  9992
2 69814  88.9925 358.6119 0008354 173.3885 186.7420 14.26719080  2085
QIANFAN-216             
1 69815U 26153R   26200.31148107  .00000152  00000+0  56574-4 0  9999
2 69815  88.9926 358.5716 0008380 172.1459 187.9868 14.26720384  2136
QIANFAN-217             
1 69816U 26153S   26201.22270091  .00000057  00000+0  17582-4 0  9999
2 69816  88.9926 358.4659 0008201 166.1695 193.9725 14.26768274  2262
QIANFAN-218             
1 69817U 26153T   26201.22223655  .00000147  00000+0  54618-4 0  9995
2 69817  88.9929 358.4663 0007974 163.5539 196.5915 14.26811725  2265
CZ-6A R/B               
1 69818U 26153U   26201.27749063  .00000192  00000+0  39685-4 0  9994
2 69818  89.0169 358.3778 0086919  70.0387 291.0158 14.53450125  2318
STARLINK-37520          
1 69819U 26154A   26201.18923594  .00352430  00000+0  17031-2 0  9993
2 69819  53.1578 267.9241 0000577 111.1750 248.9334 15.81051911  3604
STARLINK-37553          
1 69820U 26154B   26201.18848651  .00352183  00000+0  17026-2 0  9994
2 69820  53.1576 267.9182 0000735 115.3103 244.7996 15.81044170  3609
STARLINK-37561          
1 69821U 26154C   26201.18773597  .00350019  00000+0  16923-2 0  9992
2 69821  53.1579 267.9133 0000634  96.1548 263.9547 15.81047850  3609
STARLINK-37521          
1 69822U 26154D   26201.18698613  .00316682  00000+0  15387-2 0  9999
2 69822  53.1579 267.9079 0000645 104.7667 255.3428 15.81029839  3609
STARLINK-37628          
1 69823U 26154E   26201.18623586  .00299004  00000+0  14574-2 0  9992
2 69823  53.1580 267.9033 0001497  99.9660 260.1532 15.81009400  3608
STARLINK-37695          
1 69824U 26154F   26201.17928964  .00277422  00000+0  13564-2 0  9998
2 69824  53.1584 267.8563 0001030 103.7816 256.3321 15.81001674  3608
STARLINK-37690          
1 69825U 26154G   26201.18473590  .00338289  00000+0  16386-2 0  9994
2 69825  53.1579 267.8946 0000617  83.6147 276.4946 15.81038091  3600
STARLINK-37710          
1 69826U 26154H   26201.18398523  .00231955  00000+0  11408-2 0  9999
2 69826  53.1584 267.8892 0001077  91.3553 268.7593 15.80999367  3608
STARLINK-38031          
1 69827U 26154J   26201.18323692  .00331597  00000+0  16084-2 0  9993
2 69827  53.1582 267.8829 0001443 112.2669 247.8507 15.81028132  3602
STARLINK-38001          
1 69828U 26154K   26201.18248561  .00330759  00000+0  16048-2 0  9994
2 69828  53.1583 267.8782 0001535 109.4702 250.6487 15.81024339  3604
STARLINK-37622          
1 69829U 26154L   26201.18173496  .00267639  00000+0  13104-2 0  9995
2 69829  53.1584 267.8731 0001228  94.4142 265.7022 15.80997685  3604
STARLINK-37621          
1 69830U 26154M   26201.18098549  .00227256  00000+0  11194-2 0  9990
2 69830  53.1583 267.8681 0001312  89.6435 270.4738 15.80978457  3607
STARLINK-37918          
1 69831U 26154N   26201.18023465  .00259774  00000+0  12733-2 0  9996
2 69831  53.1585 267.8625 0001105  93.6351 266.4798 15.80994302  3608
STARLINK-37887          
1 69832U 26154P   26201.17948519  .00307414  00000+0  14966-2 0  9997
2 69832  53.1583 267.8572 0001101 100.6238 259.4909 15.81011977  3602
STARLINK-37624          
1 69833U 26154Q   26201.17873509  .00290783  00000+0  14190-2 0  9993
2 69833  53.1580 267.8523 0001485 101.3448 258.7742 15.81006358  3606
STARLINK-37769          
1 69834U 26154R   26201.17798429  .00196919  00000+0  97447-3 0  9994
2 69834  53.1587 267.8468 0001075  96.7426 263.3719 15.80965745  3609
STARLINK-37247          
1 69835U 26154S   26201.17723466  .00286518  00000+0  13991-2 0  9990
2 69835  53.1581 267.8422 0001369 103.1715 256.9460 15.81004314  3602
STARLINK-37569          
1 69836U 26154T   26201.17648436  .00223147  00000+0  11006-2 0  9998
2 69836  53.1585 267.8376 0001162  90.3115 269.8041 15.80962563  3603
STARLINK-37587          
1 69837U 26154U   26201.17573261  .00179009  00000+0  88935-3 0  9995
2 69837  53.1585 267.8316 0000958  88.7219 271.3914 15.80932985  3608
STARLINK-37590          
1 69838U 26154V   26201.17498438  .00199636  00000+0  98757-3 0  9999
2 69838  53.1586 267.8269 0001026  97.0976 263.0163 15.80965419  3609
