OBJECT_NAME,OBJECT_ID,EPOCH,MEAN_MOTION,ECCENTRICITY,INCLINATION,RA_OF_ASC_NODE,ARG_OF_PERICENTER,MEAN_ANOMALY,EPHEMERIS_TYPE,CLASSIFICATION_TYPE,NORAD_CAT_ID,ELEMENT_SET_NO,REV_AT_EPOCH,BSTAR,MEAN_MOTION_DOT,MEAN_MOTION_DDOT
QIANFAN-210,2026-153K,2026-07-19T14:24:51.420960,14.19393556,.00069538,88.9925,358.5414,190.0162,170.0890,0,U,69809,999,217,-.98213945E+0,-.1917183E-1,0
QIANFAN-211,2026-153L,2026-07-19T14:23:44.887776,14.19275357,.00059639,88.9923,358.5408,190.8396,169.2667,0,U,69810,999,217,-.97145367E+0,-.1893711E-1,0
QIANFAN-212,2026-153M,2026-07-18T04:32:30.888096,14.22682297,.00122001,88.9888,358.7049,152.0967,208.0882,0,U,69811,999,197,-.97540315E+0,-.201872E-1,0
QIANFAN-213,2026-153N,2026-07-17T21:48:21.510720,14.21939575,.00078274,88.9917,358.7338,155.5754,204.5809,0,U,69812,999,193,-.9822754E+0,-.2004805E-1,0
QIANFAN-214,2026-153P,2026-07-18T23:03:39.865248,14.26672643,.0008141,88.9926,358.6122,171.0888,189.0452,0,U,69813,999,208,.18792264E-4,.6E-6,0
QIANFAN-215,2026-153Q,2026-07-18T23:03:34.083360,14.26719080,.00083545,88.9925,358.6119,173.3885,186.7420,0,U,69814,999,208,.4637606E-4,.127E-5,0
QIANFAN-216,2026-153R,2026-07-19T07:28:31.964448,14.26720384,.00083806,88.9926,358.5716,172.1459,187.9868,0,U,69815,999,213,.56574274E-4,.152E-5,0
QIANFAN-217,2026-153S,2026-07-20T05:20:41.358624,14.26768274,.00082013,88.9926,358.4659,166.1695,193.9725,0,U,69816,999,226,.17581532E-4,.57E-6,0
QIANFAN-218,2026-153T,2026-07-20T05:20:01.237920,14.26811725,.00079749,88.9929,358.4663,163.5539,196.5915,0,U,69817,999,226,.54618136E-4,.147E-5,0
CZ-6A R/B,2026-153U,2026-07-20T06:39:35.190432,14.53450125,.00869196,89.0169,358.3778,70.0387,291.0158,0,U,69818,999,231,.39684999E-4,.192E-5,0
STARLINK-37520,2026-154A,2026-07-20T04:32:29.985216,15.81051911,.00005776,53.1578,267.9241,111.1750,248.9334,0,U,69819,999,360,.17030808E-2,.35243E-2,0
STARLINK-37553,2026-154B,2026-07-20T04:31:25.234464,15.81044170,.00007351,53.1576,267.9182,115.3103,244.7996,0,U,69820,999,360,.17025661E-2,.352183E-2,0
STARLINK-37561,2026-154C,2026-07-20T04:30:20.387808,15.81047850,.00006343,53.1579,267.9133,96.1548,263.9547,0,U,69821,999,360,.1692256E-2,.350019E-2,0
STARLINK-37521,2026-154D,2026-07-20T04:29:15.601632,15.81029839,.00006451,53.1579,267.9079,104.7667,255.3428,0,U,69822,999,360,.15386812E-2,.316682E-2,0
STARLINK-37628,2026-154E,2026-07-20T04:28:10.778304,15.81009400,.00014975,53.1580,267.9033,99.9660,260.1532,0,U,69823,999,360,.14574163E-2,.299004E-2,0
STARLINK-37695,2026-154F,2026-07-20T04:18:10.624896,15.81001674,.00010304,53.1584,267.8563,103.7816,256.3321,0,U,69824,999,360,.13563554E-2,.277422E-2,0
STARLINK-37690,2026-154G,2026-07-20T04:26:01.181760,15.81038091,.00006173,53.1579,267.8946,83.6147,276.4946,0,U,69825,999,360,.16386449E-2,.338289E-2,0
STARLINK-37710,2026-154H,2026-07-20T04:24:56.323872,15.80999367,.00010774,53.1584,267.8892,91.3553,268.7593,0,U,69826,999,360,.11407904E-2,.231955E-2,0
STARLINK-38031,2026-154J,2026-07-20T04:23:51.669888,15.81028132,.00014438,53.1582,267.8829,112.2669,247.8507,0,U,69827,999,360,.16083685E-2,.331597E-2,0
STARLINK-38001,2026-154K,2026-07-20T04:22:46.756704,15.81024339,.00015355,53.1583,267.8782,109.4702,250.6487,0,U,69828,999,360,.16047543E-2,.330759E-2,0
STARLINK-37622,2026-154L,2026-07-20T04:21:41.900544,15.80997685,.00012285,53.1584,267.8731,94.4142,265.7022,0,U,69829,999,360,.13103881E-2,.267639E-2,0
STARLINK-37621,2026-154M,2026-07-20T04:20:37.146336,15.80978457,.00013128,53.1583,267.8681,89.6435,270.4738,0,U,69830,999,360,.11194407E-2,.227256E-2,0
STARLINK-37918,2026-154N,2026-07-20T04:19:32.273760,15.80994302,.0001105,53.1585,267.8625,93.6351,266.4798,0,U,69831,999,360,.12733491E-2,.259774E-2,0
STARLINK-37887,2026-154P,2026-07-20T04:18:27.520416,15.81011977,.00011016,53.1583,267.8572,100.6238,259.4909,0,U,69832,999,360,.14966464E-2,.307414E-2,0
STARLINK-37624,2026-154Q,2026-07-20T04:17:22.711776,15.81006358,.00014854,53.1580,267.8523,101.3448,258.7742,0,U,69833,999,360,.14190023E-2,.290783E-2,0
STARLINK-37769,2026-154R,2026-07-20T04:16:17.842656,15.80965745,.00010755,53.1587,267.8468,96.7426,263.3719,0,U,69834,999,360,.97447076E-3,.196919E-2,0
STARLINK-37247,2026-154S,2026-07-20T04:15:13.074624,15.81004314,.00013693,53.1581,267.8422,103.1715,256.9460,0,U,69835,999,360,.13990639E-2,.286518E-2,0
STARLINK-37569,2026-154T,2026-07-20T04:14:08.248704,15.80962563,.00011627,53.1585,267.8376,90.3115,269.8041,0,U,69836,999,360,.11005932E-2,.223147E-2,0
STARLINK-37587,2026-154U,2026-07-20T04:13:03.297504,15.80932985,.00009581,53.1585,267.8316,88.7219,271.3914,0,U,69837,999,360,.88934756E-3,.179009E-2,0
STARLINK-37590,2026-154V,2026-07-20T04:11:58.650432,15.80965419,.00010263,53.1586,267.8269,97.0976,263.0163,0,U,69838,999,360,.98757101E-3,.199636E-2,0
